[{"OBJECT_NAME":"A-SEANSAT-PG1","OBJECT_ID":"2023-091AH","EPOCH":"2026-03-09T22:32:06.495648","MEAN_MOTION":15.33422293,"ECCENTRICITY":0.00088895,"INCLINATION":97.5184,"RA_OF_ASC_NODE":136.6191,"ARG_OF_PERICENTER":78.3219,"MEAN_ANOMALY":281.902,"EPHEMERIS_TYPE":0,"CLASSIFICATION_TYPE":"U","NORAD_CAT_ID":57197,"ELEMENT_SET_NO":999,"REV_AT_EPOCH":14948,"BSTAR":0.0007038551,"MEAN_MOTION_DOT":0.00022724,"MEAN_MOTION_DDOT":0},{"OBJECT_NAME":"STARLINK-36261","OBJECT_ID":"2025-299D","EPOCH":"2026-03-09T22:00:01.999584","MEAN_MOTION":15.32372839,"ECCENTRICITY":0.00013283,"INCLINATION":43.0007,"RA_OF_ASC_NODE":167.8162,"ARG_OF_PERICENTER":279.5019,"MEAN_ANOMALY":305.2641,"EPHEMERIS_TYPE":0,"CLASSIFICATION_TYPE":"U","NORAD_CAT_ID":67105,"ELEMENT_SET_NO":999,"REV_AT_EPOCH":590,"BSTAR":-0.069612872,"MEAN_MOTION_DOT":-0.02009732,"MEAN_MOTION_DDOT":0}]
